[{"OBJECT_NAME":"YAOGAN-36 03A","OBJECT_ID":"2022-160A","EPOCH":"2026-03-09T21:08:19.248576","MEAN_MOTION":15.31468155,"ECCENTRICITY":0.00027649,"INCLINATION":34.9999,"RA_OF_ASC_NODE":237.2222,"ARG_OF_PERICENTER":84.1273,"MEAN_ANOMALY":275.9759,"EPHEMERIS_TYPE":0,"CLASSIFICATION_TYPE":"U","NORAD_CAT_ID":54372,"ELEMENT_SET_NO":999,"REV_AT_EPOCH":18296,"BSTAR":0.00056596392,"MEAN_MOTION_DOT":0.00017652,"MEAN_MOTION_DDOT":0},{"OBJECT_NAME":"STARLINK-35022","OBJECT_ID":"2025-192F","EPOCH":"2026-03-09T17:55:17.144544","MEAN_MOTION":15.31027796,"ECCENTRICITY":8.084e-5,"INCLINATION":53.1589,"RA_OF_ASC_NODE":232.0428,"ARG_OF_PERICENTER":37.8679,"MEAN_ANOMALY":322.2379,"EPHEMERIS_TYPE":0,"CLASSIFICATION_TYPE":"U","NORAD_CAT_ID":65409,"ELEMENT_SET_NO":999,"REV_AT_EPOCH":2939,"BSTAR":0.0011137648,"MEAN_MOTION_DOT":0.00033635,"MEAN_MOTION_DDOT":0}]
